#dP2021  9 25  0  0  0.00000000      97 __u+U IGS14 FIT  IAC
## 2176 518400.00000000   900.00000000 59482 0.0000000000000
+  121   C01C02C03C05C06C07C08C09C10C11C12C13C14C16C19C20C21
+        C22C23C24C25C26C27C28C29C30C32C33C34C35C36C37C38C39
+        C40C41C42C43C44C45C46C60E01E02E03E04E05E07E08E09E11
+        E12E13E14E15E18E19E21E24E25E26E27E30E31E33E36G01G02
+        G03G04G05G06G07G08G09G10G12G13G14G15G16G17G18G19G20
+        G21G22G23G24G26G27G28G29G30G31G32J01J02J03J07R01R02
+        R03R04R05R07R08R09R11R12R13R14R15R16R17R18R19R20R21
+        R22R24  0  0  0  0  0  0  0  0  0  0  0  0  0  0  0
++         0  0  0  0  0  0  0  0  0  0  0  0  0  0  0  0  0
++         0  0  0  0  0  0  0  0  0  0  0  0  0  0  0  0  0
++         0  0  0  0  0  0  0  0  0  0  0  0  0  0  0  0  0
++         0  0  0  0  0  0  0  0  0  0  0  0  0  0  0  0  0
++         0  0  0  0  0  0  0  0  0  0  0  0  0  0  0  0  0
++         0  0  0  0  0  0  0  0  0  0  0  0  0  0  0  0  0
++         0  0  0  0  0  0  0  0  0  0  0  0  0  0  0  0  0
++         0  0  0  0  0  0  0  0  0  0  0  0  0  0  0  0  0
%c M  cc GPS ccc cccc cccc cccc cccc ccccc ccccc ccccc ccccc
%c cc cc ccc ccc cccc cccc cccc cccc ccccc ccccc ccccc ccccc
%f  1.2500000  1.025000000  0.00000000000  0.000000000000000
%f  0.0000000  0.000000000  0.00000000000  0.000000000000000
%i    0    0    0    0      0      0      0      0         0
%i    0    0    0    0      0      0      0      0         0
/* INFORMATION & ANALYSIS CENTER (IAC)            FINAL DATA
/* S/V CLOCKS ARE ALIGNED TO GNSS TIME                      
/* G:C1WC2W R:C1PC2P E:C1XC5X C:C2IC6I J:C1CC2S             
/* PCV:IGS14_2163 OL/AL:FES2004  NONE     YN ORB:CoN CLK:CoN
*  2021 09 25  4 30  0.00000000
PC01 -34335.375993  24419.791176     17.894429    -37.767138
PC02   4369.915389  41959.745466    920.879164    305.822225
PC03 -14868.004305  39439.936796   1288.476070   -124.517820
PC05  21876.922066  36031.130943   1111.857484    245.259036
PC06 -12455.910027  40384.653685    113.691375    241.029921
PC07  -4389.464494  29055.329917 -30187.382779   -141.162410
PC08 -16260.477987  23044.323125  31278.547976   -927.654140
PC09  -7593.435667  40663.652767  -8990.003910   -133.022561
PC10   3560.012952  31971.165134 -26772.486307      2.355384
PC11 -14322.010123  22377.558365  -8388.640913    594.413523
PC12 -17040.290919   6036.784550 -21213.560289    751.199214
PC13  -7217.493507  24279.996150  33737.571105    420.588506
PC14  -9669.374853  12949.658443  22759.408879    624.622140
PC16 -14158.336907  39710.469356   3374.817493   -793.202034
PC19    721.846402 -19803.363029 -19638.141723    957.521841
PC20  15529.506920  -5751.369152 -22451.390554   -798.802483
PC21 -21857.736541 -12617.294977  11937.530940   -932.002742
PC22 -14992.500598 -22937.955387  -5354.920904   -953.526063
PC23   9942.602278  14129.556823 -21902.250535   -964.244367
PC24 -25974.395083   8674.541300  -5298.569250   -967.721443
PC25 -10258.876486  16687.539087 -19868.732845   -849.773554
PC26 -25570.322744  -2529.170285  10839.155119    845.240212
PC27  15179.521394   4595.549963  22942.157256    602.800512
PC28   4270.647698  21931.636281  16713.791911    -22.491201
PC29   8132.445028 -26690.102863   -650.660205    451.744358
PC30  16722.298803 -15438.403836  16133.720423    481.608142
PC32  21942.673698  12491.339051 -11869.209581   -951.806273
PC33   -749.353920  19756.030595  19685.473254   -968.113837
PC34 -16624.972044  16185.600763 -15524.536000   -574.405569
PC35  -4798.494138 -22053.477855 -16401.201980    -76.372797
PC36  11094.607582 -16403.081217  19694.727779   -765.516699
PC37  25088.021498   3751.208407 -11630.457075   -867.793421
PC38 -23223.045200  24275.703609  25364.155033    177.784254
PC39 -15491.379003  38020.755351   9941.882736     33.344532
PC40  -7035.217397  24066.002320 -33857.934389    202.554420
PC41  14783.258892  22975.302413   5741.409446   -932.023781
PC42 -16153.508629   4956.019287  22246.471440   -962.343030
PC43  -8630.815244  26546.697765     64.223483   -930.082934
PC44 -15404.917326  -4315.192088 -22873.851712    405.926360
PC45 -10113.020235 -13950.304898  21958.546122    556.720119
PC46  25508.296643  -9378.447611   6432.593623     69.510558
PC60   7297.956232  41513.672465    245.735310     -0.765519
PE01   2111.527770  17519.982329 -23754.767693   -481.836943
PE02  -2256.544303 -17550.762288  23734.196374    249.127617
PE03  -2234.208993 -28927.304733  -5908.843632   -478.248067
PE04  14008.881199  23058.073118 -12173.715270   -863.981757
PE05  11058.894719 -17893.224283 -20829.196211   -246.730496
PE07 -17751.360993  -3434.712627  23438.809238   -589.169881
PE08 -14200.551552 -22753.738136  12532.404356   5932.142803
PE09  17606.693676   3133.884699 -23586.288326   5520.137860
PE11  23114.835734  -6037.161014  17463.893422   5373.334529
PE12  10592.605321  12220.028588  24788.505849   4992.784578
PE13 -22903.792578   5680.526500 -17864.791748    421.876428
PE14 -15967.811139 -20377.334619 -19464.779397  -1582.564849
PE15 -10561.510114 -12146.088714 -24838.545624    790.416399
PE18  10383.754827  16714.907908  12995.922989  -1737.365642
PE19    558.071009  28455.297708   8137.459697    386.107640
PE21 -17887.021727   9659.109562 -21507.352934   -689.893103
PE24  28612.241145   4982.333891   5770.285386  -1136.210788
PE25  18085.770100  -9534.735271  21419.854299   -547.820685
PE26 -21369.325017  20463.367036    573.203287   1304.438407
PE27 -28518.801205  -4153.920023  -6727.248797   -127.959452
PE30 -21358.654384 -15959.142209  12845.955614   2592.373215
PE31  22317.602585  15398.176249 -11859.202510   -485.999842
PE33  -7956.734728  22761.657495  17167.529664   -464.534238
PE36  21728.290117 -20100.660497    405.781104   -267.103456
PG01   7742.907837 -18621.331367 -17377.039394    557.792921
PG02 -21864.816286  14877.437489  -2209.394444   -634.161932
PG03  -1570.419520 -16692.530930 -20729.632988   -301.440684
PG04    768.319814 -26441.109547  -1940.450407   -204.195045
PG05 -12793.976962  10229.255213  20770.506914    -55.535159
PG06 -22189.551342   3195.118632 -14225.466188     81.180664
PG07  -8411.049826 -13124.515452  21871.951380    251.357457
PG08   7168.222896 -22006.488454  12729.620557    -37.726996
PG09  -8096.981747 -23630.248674   8922.460258   -361.386366
PG10  24000.618293  11727.146540   -392.315578   -210.346054
PG12   -491.096538  16487.544519 -21095.889248   -102.270517
PG13 -12838.277904  15755.471962  16873.541211    190.329209
PG14 -23484.133628 -12441.986901   -851.213334     -5.781479
PG15  -4747.042304  23009.283843  11665.625271   -118.647579
PG16  17372.538128  -4789.598365  19418.637292   -396.321887
PG17 -12444.243239 -13564.853239 -18709.163672    509.705011
PG18   9522.039108  11720.626121  21842.070106    318.372654
PG19 -14639.919355  -3925.415638 -22093.604806     57.410262
PG20 -21776.659087   3970.179969  14455.996790    518.966023
PG21  14608.582181 -19461.532242  -9264.125716    144.451550
PG22   6393.409736 -14316.565437 -21261.265877   -504.927942
PG23  18097.364617  16477.527091  10384.861092     53.169836
PG24 -10627.367288  20394.825245 -13192.763606    241.793765
PG26  24487.465555   2756.099575  10212.135703    137.943528
PG27  12287.673481 -13187.506976  19194.450819   -197.594131
PG28 -23631.390585  -9239.261660  -6948.879170    494.717548
PG29   3942.080801  25377.365979   6592.085524   -416.812912
PG30 -18423.915728  -4715.462962  18702.424649   -476.237644
PG31  23440.084466  -4333.413673 -12289.483366   -141.563997
PG32  14683.645462   9356.889510 -19992.451908     -3.672177
PJ01 -25119.754547  23405.092855  29392.896986    156.955944
PJ02 -30191.131505  15041.675487 -20745.642876     -2.784975
PJ03 -24425.931092  31886.078429  -8139.561934     -2.588358
PJ07 -25334.152192  33696.364613     15.215575      0.025758
PR01  -5455.116072 -21118.692281 -13240.423050     85.787945
PR02 -14923.763446 -19480.366359   6877.931713    494.454794
PR03 -14409.704492  -5543.919415  20323.652395     43.556602
PR04  -5639.854753  11102.033297  22284.520739    106.362028
PR05   6102.491712  21753.534669  11871.369965     79.546565
PR07  14217.927591   5027.048974 -20555.947402    -41.022720
PR08   5666.983474 -11192.366400 -22156.633303    -61.135595
PR09  18524.450119   7426.014281 -15818.620734     14.958598
PR11  18195.558974  -7955.603012  16015.815020     49.221121
PR12   -427.787418 -10997.647507  23043.944594    264.779383
PR13 -17874.860738  -7559.441814  16546.375260    -61.151434
PR14 -25509.377946    492.861160   -411.409210     69.176844
PR15 -17823.470839   7977.520464 -16386.823543    101.253249
PR16   2208.218573  11082.016514 -22888.563661    -22.011655
PR17 -14229.431748   6330.684229 -20178.034435    461.339278
PR18 -15018.626831  19414.970653  -7003.724756     91.593502
PR19  -9016.145633  22091.360732   8997.988923   -160.663463
PR20   4609.255097  11356.043122  22382.134195    -56.472796
PR21  14593.618058  -7626.121878  19494.446973   -241.862409
PR22  14870.068868 -19762.336012   6049.022902   -135.175567
PR24  -5678.798442 -10882.071473 -22349.049496     60.026677
EOF
